{
  "type": "FeatureCollection",
  "features": [
    {
      "type": "Feature",
      "properties": {
        "norad_id": 26766,
        "name": "INTELSAT 10 (IS-10)",
        "group": "intelsat",
        "lat": -4.934012560354984,
        "lon": 26.403842255759976,
        "alt_km": 36129.784755619345,
        "timestamp": "2025-12-15T11:38:36.824993+00:00",
        "meta_object_name": "INTELSAT 10 (IS-10)",
        "meta_object_id": "2001-019A",
        "meta_epoch": "2025-12-14T14:02:27.622752",
        "meta_mean_motion": 0.99078028,
        "meta_eccentricity": 0.00077179,
        "meta_inclination": 8.6342,
        "meta_ra_of_asc_node": 61.1391,
        "meta_arg_of_pericenter": 226.5687,
        "meta_mean_anomaly": 137.2498,
        "meta_ephemeris_type": 0,
        "meta_classification_type": "U",
        "meta_norad_cat_id": 26766,
        "meta_element_set_no": 999,
        "meta_rev_at_epoch": 4375,
        "meta_bstar": 0,
        "meta_mean_motion_dot": -2.54e-06,
        "meta_mean_motion_ddot": 0,
        "tle_line1": "1 26766U 01019A   25348.58504193 -.00000254  00000+0  00000+0 0  9995",
        "tle_line2": "2 26766   8.6342  61.1391 0007717 226.5687 137.2498  0.99078028 43757"
      },
      "geometry": {
        "type": "Point",
        "coordinates": [
          26.403842255759976,
          -4.934012560354984
        ]
      }
    },
    {
      "type": "Feature",
      "properties": {
        "norad_id": 26900,
        "name": "INTELSAT 902 (IS-902)",
        "group": "intelsat",
        "lat": 3.988740394998225,
        "lon": -150.9617599666895,
        "alt_km": 35773.82619676988,
        "timestamp": "2025-12-15T11:38:36.825016+00:00",
        "meta_object_name": "INTELSAT 902 (IS-902)",
        "meta_object_id": "2001-039A",
        "meta_epoch": "2025-12-11T04:42:42.842016",
        "meta_mean_motion": 1.00272526,
        "meta_eccentricity": 0.00044264,
        "meta_inclination": 5.6424,
        "meta_ra_of_asc_node": 74.0881,
        "meta_arg_of_pericenter": 184.9809,
        "meta_mean_anomaly": 201.6699,
        "meta_ephemeris_type": 0,
        "meta_classification_type": "U",
        "meta_norad_cat_id": 26900,
        "meta_element_set_no": 999,
        "meta_rev_at_epoch": 8881,
        "meta_bstar": 0,
        "meta_mean_motion_dot": -2.78e-06,
        "meta_mean_motion_ddot": 0,
        "tle_line1": "1 26900U 01039A   25345.19632919 -.00000278  00000+0  00000+0 0  9995",
        "tle_line2": "2 26900   5.6424  74.0881 0004426 184.9809 201.6699  1.00272526 88816"
      },
      "geometry": {
        "type": "Point",
        "coordinates": [
          -150.9617599666895,
          3.988740394998225
        ]
      }
    },
    {
      "type": "Feature",
      "properties": {
        "norad_id": 27380,
        "name": "INTELSAT 904 (IS-904)",
        "group": "intelsat",
        "lat": 2.5918773327032745,
        "lon": -132.34094624745848,
        "alt_km": 35784.37577365092,
        "timestamp": "2025-12-15T11:38:36.825032+00:00",
        "meta_object_name": "INTELSAT 904 (IS-904)",
        "meta_object_id": "2002-007A",
        "meta_epoch": "2025-12-14T11:33:26.896320",
        "meta_mean_motion": 1.00272447,
        "meta_eccentricity": 0.0001562,
        "meta_inclination": 6.459,
        "meta_ra_of_asc_node": 71.4126,
        "meta_arg_of_pericenter": 235.2201,
        "meta_mean_anomaly": 278.628,
        "meta_ephemeris_type": 0,
        "meta_classification_type": "U",
        "meta_norad_cat_id": 27380,
        "meta_element_set_no": 999,
        "meta_rev_at_epoch": 4991,
        "meta_bstar": 0,
        "meta_mean_motion_dot": -2.1e-06,
        "meta_mean_motion_ddot": 0,
        "tle_line1": "1 27380U 02007A   25348.48156130 -.00000210  00000+0  00000+0 0  9991",
        "tle_line2": "2 27380   6.4590  71.4126 0001562 235.2201 278.6280  1.00272447 49919"
      },
      "geometry": {
        "type": "Point",
        "coordinates": [
          -132.34094624745848,
          2.5918773327032745
        ]
      }
    },
    {
      "type": "Feature",
      "properties": {
        "norad_id": 27426,
        "name": "DIRECTV 5 (TEMPO 1)",
        "group": "intelsat",
        "lat": 4.18123469837066,
        "lon": 148.83450779870648,
        "alt_km": 35794.43040289421,
        "timestamp": "2025-12-15T11:38:36.825046+00:00",
        "meta_object_name": "DIRECTV 5 (TEMPO 1)",
        "meta_object_id": "2002-023A",
        "meta_epoch": "2025-12-14T21:27:15.024960",
        "meta_mean_motion": 1.00272395,
        "meta_eccentricity": 0.00034192,
        "meta_inclination": 4.4076,
        "meta_ra_of_asc_node": 77.6283,
        "meta_arg_of_pericenter": 200.2517,
        "meta_mean_anomaly": 17.6165,
        "meta_ephemeris_type": 0,
        "meta_classification_type": "U",
        "meta_norad_cat_id": 27426,
        "meta_element_set_no": 999,
        "meta_rev_at_epoch": 8627,
        "meta_bstar": 0,
        "meta_mean_motion_dot": -3.9e-07,
        "meta_mean_motion_ddot": 0,
        "tle_line1": "1 27426U 02023A   25348.89392390 -.00000039  00000+0  00000+0 0  9994",
        "tle_line2": "2 27426   4.4076  77.6283 0003419 200.2517  17.6165  1.00272395 86279"
      },
      "geometry": {
        "type": "Point",
        "coordinates": [
          148.83450779870648,
          4.18123469837066
        ]
      }
    },
    {
      "type": "Feature",
      "properties": {
        "norad_id": 27438,
        "name": "INTELSAT 905 (IS-905)",
        "group": "intelsat",
        "lat": 4.820255750607037,
        "lon": 121.67846195439198,
        "alt_km": 35794.574941359344,
        "timestamp": "2025-12-15T11:38:36.825058+00:00",
        "meta_object_name": "INTELSAT 905 (IS-905)",
        "meta_object_id": "2002-027A",
        "meta_epoch": "2025-12-14T04:33:38.635200",
        "meta_mean_motion": 1.00274201,
        "meta_eccentricity": 0.00026501,
        "meta_inclination": 6.2894,
        "meta_ra_of_asc_node": 72.0398,
        "meta_arg_of_pericenter": 202.1249,
        "meta_mean_anomaly": 100.1717,
        "meta_ephemeris_type": 0,
        "meta_classification_type": "U",
        "meta_norad_cat_id": 27438,
        "meta_element_set_no": 999,
        "meta_rev_at_epoch": 4950,
        "meta_bstar": 0,
        "meta_mean_motion_dot": 1.08e-06,
        "meta_mean_motion_ddot": 0,
        "tle_line1": "1 27438U 02027A   25348.19003050  .00000108  00000+0  00000+0 0  9992",
        "tle_line2": "2 27438   6.2894  72.0398 0002650 202.1249 100.1717  1.00274201 49509"
      },
      "geometry": {
        "type": "Point",
        "coordinates": [
          121.67846195439198,
          4.820255750607037
        ]
      }
    },
    {
      "type": "Feature",
      "properties": {
        "norad_id": 27445,
        "name": "GALAXY 3C (G-3C)",
        "group": "intelsat",
        "lat": 3.250491992405498,
        "lon": 164.1610170854145,
        "alt_km": 35781.16117953419,
        "timestamp": "2025-12-15T11:38:36.825070+00:00",
        "meta_object_name": "GALAXY 3C (G-3C)",
        "meta_object_id": "2002-030A",
        "meta_epoch": "2025-12-14T19:48:54.444096",
        "meta_mean_motion": 1.00271582,
        "meta_eccentricity": 0.00010928,
        "meta_inclination": 3.2695,
        "meta_ra_of_asc_node": 80.4845,
        "meta_arg_of_pericenter": 82.3399,
        "meta_mean_anomaly": 123.2761,
        "meta_ephemeris_type": 0,
        "meta_classification_type": "U",
        "meta_norad_cat_id": 27445,
        "meta_element_set_no": 999,
        "meta_rev_at_epoch": 4464,
        "meta_bstar": 0,
        "meta_mean_motion_dot": -1.34e-06,
        "meta_mean_motion_ddot": 0,
        "tle_line1": "1 27445U 02030A   25348.82563014 -.00000134  00000+0  00000+0 0  9995",
        "tle_line2": "2 27445   3.2695  80.4845 0001092  82.3399 123.2761  1.00271582 44640"
      },
      "geometry": {
        "type": "Point",
        "coordinates": [
          164.1610170854145,
          3.250491992405498
        ]
      }
    },
    {
      "type": "Feature",
      "properties": {
        "norad_id": 27513,
        "name": "INTELSAT 906 (IS-906)",
        "group": "intelsat",
        "lat": -4.956307925841616,
        "lon": -36.86288682645269,
        "alt_km": 35771.07295253607,
        "timestamp": "2025-12-15T11:38:36.825083+00:00",
        "meta_object_name": "INTELSAT 906 (IS-906)",
        "meta_object_id": "2002-041A",
        "meta_epoch": "2025-12-14T20:34:20.091936",
        "meta_mean_motion": 1.00271883,
        "meta_eccentricity": 0.0006226,
        "meta_inclination": 5.3344,
        "meta_ra_of_asc_node": 75.206,
        "meta_arg_of_pericenter": 194.3565,
        "meta_mean_anomaly": 186.9166,
        "meta_ephemeris_type": 0,
        "meta_classification_type": "U",
        "meta_norad_cat_id": 27513,
        "meta_element_set_no": 999,
        "meta_rev_at_epoch": 8518,
        "meta_bstar": 0,
        "meta_mean_motion_dot": 3e-07,
        "meta_mean_motion_ddot": 0,
        "tle_line1": "1 27513U 02041A   25348.85717699  .00000030  00000+0  00000+0 0  9990",
        "tle_line2": "2 27513   5.3344  75.2060 0006226 194.3565 186.9166  1.00271883 85187"
      },
      "geometry": {
        "type": "Point",
        "coordinates": [
          -36.86288682645269,
          -4.956307925841616
        ]
      }
    }
  ]
}